SHIYAN-24C 01           
1 58650U 23206A   26068.89348774  .00002076  00000+0  18089-3 0  9992
2 58650  97.3976  41.7846 0003675 132.3262 227.8273 14.97903598120444
STARLINK-33885          
1 63886U 25094Y   26068.87181255  .00004798  00000+0  40965-3 0  9994
2 63886  70.0018 233.8651 0003058 266.2522  93.8288 14.98331241 47238
